CCSDS_OMM_VERS = 2.0
CREATION_DATE  = 
ORIGINATOR     = 

OBJECT_NAME    = SL-3 R/B
OBJECT_ID      = 1982-079B
CENTER_NAME    = EARTH
REF_FRAME      = TEME
TIME_SYSTEM    = UTC
MEAN_ELEMENT_THEORY = SGP/SGP4

EPOCH          = 2026-01-27T13:52:59.134944
MEAN_MOTION    = 15.24212367
ECCENTRICITY   = .00244896
INCLINATION    = 81.1448
RA_OF_ASC_NODE = 241.6044
ARG_OF_PERICENTER = 307.0126
MEAN_ANOMALY   = 52.8866

EPHEMERIS_TYPE = 0
CLASSIFICATION_TYPE = U
NORAD_CAT_ID   = 13403
ELEMENT_SET_NO = 999
REV_AT_EPOCH   = 37143
BSTAR          = .28582356E-3
MEAN_MOTION_DOT = .705E-4
MEAN_MOTION_DDOT = 0

CCSDS_OMM_VERS = 2.0
CREATION_DATE  = 
ORIGINATOR     = 

OBJECT_NAME    = SL-14 R/B
OBJECT_ID      = 1982-092B
CENTER_NAME    = EARTH
REF_FRAME      = TEME
TIME_SYSTEM    = UTC
MEAN_ELEMENT_THEORY = SGP/SGP4

EPOCH          = 2026-01-27T12:28:27.424704
MEAN_MOTION    = 14.86615848
ECCENTRICITY   = .00218312
INCLINATION    = 82.5687
RA_OF_ASC_NODE = 179.8951
ARG_OF_PERICENTER = 78.7048
MEAN_ANOMALY   = 347.9737

EPHEMERIS_TYPE = 0
CLASSIFICATION_TYPE = U
NORAD_CAT_ID   = 13553
ELEMENT_SET_NO = 999
REV_AT_EPOCH   = 32281
BSTAR          = .10952336E-3
MEAN_MOTION_DOT = .1E-4
MEAN_MOTION_DDOT = 0

CCSDS_OMM_VERS = 2.0
CREATION_DATE  = 
ORIGINATOR     = 

OBJECT_NAME    = SL-3 R/B
OBJECT_ID      = 1983-010B
CENTER_NAME    = EARTH
REF_FRAME      = TEME
TIME_SYSTEM    = UTC
MEAN_ELEMENT_THEORY = SGP/SGP4

EPOCH          = 2026-01-27T12:30:44.215776
MEAN_MOTION    = 15.44912709
ECCENTRICITY   = .00169346
INCLINATION    = 81.1024
RA_OF_ASC_NODE = 52.6710
ARG_OF_PERICENTER = 185.0468
MEAN_ANOMALY   = 175.0609

EPHEMERIS_TYPE = 0
CLASSIFICATION_TYPE = U
NORAD_CAT_ID   = 13819
ELEMENT_SET_NO = 999
REV_AT_EPOCH   = 35158
BSTAR          = .38905047E-3
MEAN_MOTION_DOT = .18431E-3
MEAN_MOTION_DDOT = 0

CCSDS_OMM_VERS = 2.0
CREATION_DATE  = 
ORIGINATOR     = 

OBJECT_NAME    = SL-3 R/B
OBJECT_ID      = 1983-075B
CENTER_NAME    = EARTH
REF_FRAME      = TEME
TIME_SYSTEM    = UTC
MEAN_ELEMENT_THEORY = SGP/SGP4

EPOCH          = 2026-01-27T13:33:21.426048
MEAN_MOTION    = 15.37306255
ECCENTRICITY   = .00229531
INCLINATION    = 97.6127
RA_OF_ASC_NODE = 30.6293
ARG_OF_PERICENTER = 22.0271
MEAN_ANOMALY   = 338.1954

EPHEMERIS_TYPE = 0
CLASSIFICATION_TYPE = U
NORAD_CAT_ID   = 14208
ELEMENT_SET_NO = 999
REV_AT_EPOCH   = 32383
BSTAR          = .4508921E-3
MEAN_MOTION_DOT = .16556E-3
MEAN_MOTION_DDOT = 0

CCSDS_OMM_VERS = 2.0
CREATION_DATE  = 
ORIGINATOR     = 

OBJECT_NAME    = COSMOS 1536
OBJECT_ID      = 1984-013A
CENTER_NAME    = EARTH
REF_FRAME      = TEME
TIME_SYSTEM    = UTC
MEAN_ELEMENT_THEORY = SGP/SGP4

EPOCH          = 2026-01-27T09:47:33.483552
MEAN_MOTION    = 15.23235852
ECCENTRICITY   = .00156145
INCLINATION    = 82.5467
RA_OF_ASC_NODE = 148.8542
ARG_OF_PERICENTER = 70.2608
MEAN_ANOMALY   = 290.0311

EPHEMERIS_TYPE = 0
CLASSIFICATION_TYPE = U
NORAD_CAT_ID   = 14699
ELEMENT_SET_NO = 999
REV_AT_EPOCH   = 26633
BSTAR          = .47290591E-3
MEAN_MOTION_DOT = .11269E-3
MEAN_MOTION_DDOT = 0

CCSDS_OMM_VERS = 2.0
CREATION_DATE  = 
ORIGINATOR     = 

OBJECT_NAME    = SL-14 R/B
OBJECT_ID      = 1984-027B
CENTER_NAME    = EARTH
REF_FRAME      = TEME
TIME_SYSTEM    = UTC
MEAN_ELEMENT_THEORY = SGP/SGP4

EPOCH          = 2026-01-27T03:29:18.897504
MEAN_MOTION    = 14.85933297
ECCENTRICITY   = .00194388
INCLINATION    = 82.5421
RA_OF_ASC_NODE = 283.9817
ARG_OF_PERICENTER = 109.2696
MEAN_ANOMALY   = 251.0626

EPHEMERIS_TYPE = 0
CLASSIFICATION_TYPE = U
NORAD_CAT_ID   = 14820
ELEMENT_SET_NO = 999
REV_AT_EPOCH   = 24146
BSTAR          = .81484848E-4
MEAN_MOTION_DOT = .738E-5
MEAN_MOTION_DDOT = 0

CCSDS_OMM_VERS = 2.0
CREATION_DATE  = 
ORIGINATOR     = 

OBJECT_NAME    = SL-8 R/B
OBJECT_ID      = 1985-006B
CENTER_NAME    = EARTH
REF_FRAME      = TEME
TIME_SYSTEM    = UTC
MEAN_ELEMENT_THEORY = SGP/SGP4

EPOCH          = 2026-01-27T15:03:19.630656
MEAN_MOTION    = 14.37759741
ECCENTRICITY   = .0019746
INCLINATION    = 74.0475
RA_OF_ASC_NODE = 336.7031
ARG_OF_PERICENTER = 261.8289
MEAN_ANOMALY   = 271.0589

EPHEMERIS_TYPE = 0
CLASSIFICATION_TYPE = U
NORAD_CAT_ID   = 15483
ELEMENT_SET_NO = 999
REV_AT_EPOCH   = 14812
BSTAR          = .18185648E-3
MEAN_MOTION_DOT = .522E-5
MEAN_MOTION_DDOT = 0

CCSDS_OMM_VERS = 2.0
CREATION_DATE  = 
ORIGINATOR     = 

OBJECT_NAME    = SL-12 R/B(2)
OBJECT_ID      = 1985-042D
CENTER_NAME    = EARTH
REF_FRAME      = TEME
TIME_SYSTEM    = UTC
MEAN_ELEMENT_THEORY = SGP/SGP4

EPOCH          = 2026-01-27T16:08:48.934176
MEAN_MOTION    = 14.21968886
ECCENTRICITY   = .0035685
INCLINATION    = 71.1076
RA_OF_ASC_NODE = 174.3818
ARG_OF_PERICENTER = 193.0816
MEAN_ANOMALY   = 178.6808

EPHEMERIS_TYPE = 0
CLASSIFICATION_TYPE = U
NORAD_CAT_ID   = 15772
ELEMENT_SET_NO = 999
REV_AT_EPOCH   = 10856
BSTAR          = .12622774E-3
MEAN_MOTION_DOT = .233E-5
MEAN_MOTION_DDOT = 0

CCSDS_OMM_VERS = 2.0
CREATION_DATE  = 
ORIGINATOR     = 

OBJECT_NAME    = SL-14 R/B
OBJECT_ID      = 1985-069B
CENTER_NAME    = EARTH
REF_FRAME      = TEME
TIME_SYSTEM    = UTC
MEAN_ELEMENT_THEORY = SGP/SGP4

EPOCH          = 2026-01-27T11:30:13.479552
MEAN_MOTION    = 14.86383329
ECCENTRICITY   = .00180287
INCLINATION    = 82.5243
RA_OF_ASC_NODE = 63.6951
ARG_OF_PERICENTER = 333.3557
MEAN_ANOMALY   = 26.6731

EPHEMERIS_TYPE = 0
CLASSIFICATION_TYPE = U
NORAD_CAT_ID   = 15945
ELEMENT_SET_NO = 999
REV_AT_EPOCH   = 16671
BSTAR          = .86630232E-4
MEAN_MOTION_DOT = .79E-5
MEAN_MOTION_DDOT = 0

CCSDS_OMM_VERS = 2.0
CREATION_DATE  = 
ORIGINATOR     = 

OBJECT_NAME    = SL-16 R/B
OBJECT_ID      = 1985-097B
CENTER_NAME    = EARTH
REF_FRAME      = TEME
TIME_SYSTEM    = UTC
MEAN_ELEMENT_THEORY = SGP/SGP4

EPOCH          = 2026-01-27T06:38:04.295040
MEAN_MOTION    = 14.16591378
ECCENTRICITY   = .000906
INCLINATION    = 71.0000
RA_OF_ASC_NODE = 227.7369
ARG_OF_PERICENTER = 308.5413
MEAN_ANOMALY   = 224.8614

EPHEMERIS_TYPE = 0
CLASSIFICATION_TYPE = U
NORAD_CAT_ID   = 16182
ELEMENT_SET_NO = 999
REV_AT_EPOCH   = 8136
BSTAR          = .98905E-4
MEAN_MOTION_DOT = .149E-5
MEAN_MOTION_DDOT = 0

CCSDS_OMM_VERS = 2.0
CREATION_DATE  = 
ORIGINATOR     = 

OBJECT_NAME    = SL-14 R/B
OBJECT_ID      = 1986-006B
CENTER_NAME    = EARTH
REF_FRAME      = TEME
TIME_SYSTEM    = UTC
MEAN_ELEMENT_THEORY = SGP/SGP4

EPOCH          = 2026-01-27T16:03:26.080704
MEAN_MOTION    = 14.86751729
ECCENTRICITY   = .00778887
INCLINATION    = 82.5284
RA_OF_ASC_NODE = 298.3424
ARG_OF_PERICENTER = 49.4384
MEAN_ANOMALY   = 311.3578

EPHEMERIS_TYPE = 0
CLASSIFICATION_TYPE = U
NORAD_CAT_ID   = 16496
ELEMENT_SET_NO = 999
REV_AT_EPOCH   = 14311
BSTAR          = .13290744E-3
MEAN_MOTION_DOT = .1277E-4
MEAN_MOTION_DDOT = 0

CCSDS_OMM_VERS = 2.0
CREATION_DATE  = 
ORIGINATOR     = 

OBJECT_NAME    = COSMOS 1743
OBJECT_ID      = 1986-034A
CENTER_NAME    = EARTH
REF_FRAME      = TEME
TIME_SYSTEM    = UTC
MEAN_ELEMENT_THEORY = SGP/SGP4

EPOCH          = 2026-01-27T12:15:32.962752
MEAN_MOTION    = 15.55494630
ECCENTRICITY   = .00054973
INCLINATION    = 82.5351
RA_OF_ASC_NODE = 116.9413
ARG_OF_PERICENTER = 87.9827
MEAN_ANOMALY   = 272.2056

EPHEMERIS_TYPE = 0
CLASSIFICATION_TYPE = U
NORAD_CAT_ID   = 16719
ELEMENT_SET_NO = 999
REV_AT_EPOCH   = 17384
BSTAR          = .68759049E-3
MEAN_MOTION_DOT = .47181E-3
MEAN_MOTION_DDOT = 0

