SL-3 R/B                
1 13403U 82079B   26027.57846221  .00007050  00000+0  28582-3 0  9998
2 13403  81.1448 241.6044 0024489 307.0126  52.8866 15.24212367371432
SL-14 R/B               
1 13553U 82092B   26027.51976186  .00001000  00000+0  10952-3 0  9998
2 13553  82.5687 179.8951 0021831  78.7048 347.9737 14.86615848322811
SL-3 R/B                
1 13819U 83010B   26027.52134509  .00018431  00000+0  38905-3 0  9994
2 13819  81.1024  52.6710 0016934 185.0468 175.0609 15.44912709351588
SL-3 R/B                
1 14208U 83075B   26027.56483132  .00016556  00000+0  45089-3 0  9998
2 14208  97.6127  30.6293 0022953  22.0271 338.1954 15.37306255323836
COSMOS 1536             
1 14699U 84013A   26027.40802643  .00011269  00000+0  47291-3 0  9993
2 14699  82.5467 148.8542 0015614  70.2608 290.0311 15.23235852266337
SL-14 R/B               
1 14820U 84027B   26027.14535761  .00000738  00000+0  81485-4 0  9992
2 14820  82.5421 283.9817 0019438 109.2696 251.0626 14.85933297241465
SL-8 R/B                
1 15483U 85006B   26027.62731054  .00000522  00000+0  18186-3 0  9990
2 15483  74.0475 336.7031 0019746 261.8289 271.0589 14.37759741148122
SL-12 R/B(2)            
1 15772U 85042D   26027.67278859  .00000233  00000+0  12623-3 0  9994
2 15772  71.1076 174.3818 0035685 193.0816 178.6808 14.21968886108564
SL-14 R/B               
1 15945U 85069B   26027.47932268  .00000790  00000+0  86630-4 0  9992
2 15945  82.5243  63.6951 0018028 333.3557  26.6731 14.86383329166711
SL-16 R/B               
1 16182U 85097B   26027.27643860  .00000149  00000+0  98905-4 0  9998
2 16182  71.0000 227.7369 0009060 308.5413 224.8614 14.16591378 81363
SL-14 R/B               
1 16496U 86006B   26027.66905186  .00001277  00000+0  13291-3 0  9999
2 16496  82.5284 298.3424 0077888  49.4384 311.3578 14.86751729143117
COSMOS 1743             
1 16719U 86034A   26027.51079818  .00047181  00000+0  68759-3 0  9999
2 16719  82.5351 116.9413 0005497  87.9827 272.2056 15.55494630173840
